CCSDS_OMM_VERS = 2.0
CREATION_DATE  = 
ORIGINATOR     = 

OBJECT_NAME    = ATLAS CENTAUR R/B
OBJECT_ID      = 1972-065B
CENTER_NAME    = EARTH
REF_FRAME      = TEME
TIME_SYSTEM    = UTC
MEAN_ELEMENT_THEORY = SGP/SGP4

EPOCH          = 2026-01-31T11:06:44.991936
MEAN_MOTION    = 14.77572000
ECCENTRICITY   = .0033191
INCLINATION    = 35.0002
RA_OF_ASC_NODE = 163.8945
ARG_OF_PERICENTER = 56.1438
MEAN_ANOMALY   = 304.2414

EPHEMERIS_TYPE = 0
CLASSIFICATION_TYPE = U
NORAD_CAT_ID   = 6155
ELEMENT_SET_NO = 999
REV_AT_EPOCH   = 83575
BSTAR          = .20088E-3
MEAN_MOTION_DOT = .1447E-4
MEAN_MOTION_DDOT = 0

CCSDS_OMM_VERS = 2.0
CREATION_DATE  = 
ORIGINATOR     = 

OBJECT_NAME    = SL-8 R/B
OBJECT_ID      = 1975-112B
CENTER_NAME    = EARTH
REF_FRAME      = TEME
TIME_SYSTEM    = UTC
MEAN_ELEMENT_THEORY = SGP/SGP4

EPOCH          = 2026-01-31T11:56:03.213888
MEAN_MOTION    = 14.38184352
ECCENTRICITY   = .001578
INCLINATION    = 74.0600
RA_OF_ASC_NODE = 87.3347
ARG_OF_PERICENTER = 192.6228
MEAN_ANOMALY   = 167.4533

EPHEMERIS_TYPE = 0
CLASSIFICATION_TYPE = U
NORAD_CAT_ID   = 8459
ELEMENT_SET_NO = 999
REV_AT_EPOCH   = 62652
BSTAR          = .93357E-4
MEAN_MOTION_DOT = .258E-5
MEAN_MOTION_DDOT = 0

CCSDS_OMM_VERS = 2.0
CREATION_DATE  = 
ORIGINATOR     = 

OBJECT_NAME    = SL-3 R/B
OBJECT_ID      = 1977-057B
CENTER_NAME    = EARTH
REF_FRAME      = TEME
TIME_SYSTEM    = UTC
MEAN_ELEMENT_THEORY = SGP/SGP4

EPOCH          = 2026-01-31T11:26:00.482208
MEAN_MOTION    = 15.44394978
ECCENTRICITY   = .0008442
INCLINATION    = 97.5712
RA_OF_ASC_NODE = 201.8034
ARG_OF_PERICENTER = 61.7345
MEAN_ANOMALY   = 298.4754

EPHEMERIS_TYPE = 0
CLASSIFICATION_TYPE = U
NORAD_CAT_ID   = 10114
ELEMENT_SET_NO = 999
REV_AT_EPOCH   = 66258
BSTAR          = .2696E-3
MEAN_MOTION_DOT = .12379E-3
MEAN_MOTION_DDOT = 0

CCSDS_OMM_VERS = 2.0
CREATION_DATE  = 
ORIGINATOR     = 

OBJECT_NAME    = SEASAT 1
OBJECT_ID      = 1978-064A
CENTER_NAME    = EARTH
REF_FRAME      = TEME
TIME_SYSTEM    = UTC
MEAN_ELEMENT_THEORY = SGP/SGP4

EPOCH          = 2026-01-31T11:43:33.859776
MEAN_MOTION    = 14.46126882
ECCENTRICITY   = .0001398
INCLINATION    = 108.0165
RA_OF_ASC_NODE = 47.4270
ARG_OF_PERICENTER = 290.0166
MEAN_ANOMALY   = 70.0829

EPHEMERIS_TYPE = 0
CLASSIFICATION_TYPE = U
NORAD_CAT_ID   = 10967
ELEMENT_SET_NO = 999
REV_AT_EPOCH   = 50113
BSTAR          = .14546E-3
MEAN_MOTION_DOT = .383E-5
MEAN_MOTION_DDOT = 0

CCSDS_OMM_VERS = 2.0
CREATION_DATE  = 
ORIGINATOR     = 

OBJECT_NAME    = SL-14 R/B
OBJECT_ID      = 1979-011B
CENTER_NAME    = EARTH
REF_FRAME      = TEME
TIME_SYSTEM    = UTC
MEAN_ELEMENT_THEORY = SGP/SGP4

EPOCH          = 2026-01-31T08:32:40.661952
MEAN_MOTION    = 14.91857560
ECCENTRICITY   = .0016107
INCLINATION    = 82.5261
RA_OF_ASC_NODE = 131.9908
ARG_OF_PERICENTER = 177.0457
MEAN_ANOMALY   = 183.0860

EPHEMERIS_TYPE = 0
CLASSIFICATION_TYPE = U
NORAD_CAT_ID   = 11267
ELEMENT_SET_NO = 999
REV_AT_EPOCH   = 52321
BSTAR          = .79897E-4
MEAN_MOTION_DOT = .834E-5
MEAN_MOTION_DDOT = 0

CCSDS_OMM_VERS = 2.0
CREATION_DATE  = 
ORIGINATOR     = 

OBJECT_NAME    = SL-8 R/B
OBJECT_ID      = 1979-089B
CENTER_NAME    = EARTH
REF_FRAME      = TEME
TIME_SYSTEM    = UTC
MEAN_ELEMENT_THEORY = SGP/SGP4

EPOCH          = 2026-01-31T11:58:53.205888
MEAN_MOTION    = 14.42325407
ECCENTRICITY   = .0016236
INCLINATION    = 74.0694
RA_OF_ASC_NODE = 159.8823
ARG_OF_PERICENTER = 337.6353
MEAN_ANOMALY   = 22.4093

EPHEMERIS_TYPE = 0
CLASSIFICATION_TYPE = U
NORAD_CAT_ID   = 11574
ELEMENT_SET_NO = 999
REV_AT_EPOCH   = 43074
BSTAR          = .11287E-3
MEAN_MOTION_DOT = .347E-5
MEAN_MOTION_DDOT = 0

CCSDS_OMM_VERS = 2.0
CREATION_DATE  = 
ORIGINATOR     = 

OBJECT_NAME    = SL-14 R/B
OBJECT_ID      = 1980-005B
CENTER_NAME    = EARTH
REF_FRAME      = TEME
TIME_SYSTEM    = UTC
MEAN_ELEMENT_THEORY = SGP/SGP4

EPOCH          = 2026-01-31T09:52:46.824384
MEAN_MOTION    = 14.90875642
ECCENTRICITY   = .0014237
INCLINATION    = 82.5169
RA_OF_ASC_NODE = 342.5856
ARG_OF_PERICENTER = 290.3499
MEAN_ANOMALY   = 69.6190

EPHEMERIS_TYPE = 0
CLASSIFICATION_TYPE = U
NORAD_CAT_ID   = 11672
ELEMENT_SET_NO = 999
REV_AT_EPOCH   = 47093
BSTAR          = .8431E-4
MEAN_MOTION_DOT = .857E-5
MEAN_MOTION_DDOT = 0

CCSDS_OMM_VERS = 2.0
CREATION_DATE  = 
ORIGINATOR     = 

OBJECT_NAME    = SL-8 R/B
OBJECT_ID      = 1981-003B
CENTER_NAME    = EARTH
REF_FRAME      = TEME
TIME_SYSTEM    = UTC
MEAN_ELEMENT_THEORY = SGP/SGP4

EPOCH          = 2026-01-31T07:13:00.588000
MEAN_MOTION    = 15.09512751
ECCENTRICITY   = .0265428
INCLINATION    = 82.9395
RA_OF_ASC_NODE = 324.5586
ARG_OF_PERICENTER = 309.3855
MEAN_ANOMALY   = 48.4131

EPHEMERIS_TYPE = 0
CLASSIFICATION_TYPE = U
NORAD_CAT_ID   = 12139
ELEMENT_SET_NO = 999
REV_AT_EPOCH   = 30903
BSTAR          = .65092E-3
MEAN_MOTION_DOT = .2452E-3
MEAN_MOTION_DDOT = 0

CCSDS_OMM_VERS = 2.0
CREATION_DATE  = 
ORIGINATOR     = 

OBJECT_NAME    = SL-3 R/B
OBJECT_ID      = 1981-046B
CENTER_NAME    = EARTH
REF_FRAME      = TEME
TIME_SYSTEM    = UTC
MEAN_ELEMENT_THEORY = SGP/SGP4

EPOCH          = 2026-01-31T11:00:43.643808
MEAN_MOTION    = 15.40932117
ECCENTRICITY   = .0020215
INCLINATION    = 81.2345
RA_OF_ASC_NODE = 334.4027
ARG_OF_PERICENTER = 144.0625
MEAN_ANOMALY   = 216.1981

EPHEMERIS_TYPE = 0
CLASSIFICATION_TYPE = U
NORAD_CAT_ID   = 12465
ELEMENT_SET_NO = 999
REV_AT_EPOCH   = 43269
BSTAR          = .29168E-3
MEAN_MOTION_DOT = .1212E-3
MEAN_MOTION_DDOT = 0

CCSDS_OMM_VERS = 2.0
CREATION_DATE  = 
ORIGINATOR     = 

OBJECT_NAME    = SL-3 R/B
OBJECT_ID      = 1981-103B
CENTER_NAME    = EARTH
REF_FRAME      = TEME
TIME_SYSTEM    = UTC
MEAN_ELEMENT_THEORY = SGP/SGP4

EPOCH          = 2026-01-31T11:23:37.205952
MEAN_MOTION    = 15.20921979
ECCENTRICITY   = .0014112
INCLINATION    = 81.1572
RA_OF_ASC_NODE = 257.0817
ARG_OF_PERICENTER = 52.5520
MEAN_ANOMALY   = 307.6993

EPHEMERIS_TYPE = 0
CLASSIFICATION_TYPE = U
NORAD_CAT_ID   = 12904
ELEMENT_SET_NO = 999
REV_AT_EPOCH   = 96757
BSTAR          = .2129E-3
MEAN_MOTION_DOT = .4746E-4
MEAN_MOTION_DDOT = 0

CCSDS_OMM_VERS = 2.0
CREATION_DATE  = 
ORIGINATOR     = 

OBJECT_NAME    = SL-3 R/B
OBJECT_ID      = 1982-013B
CENTER_NAME    = EARTH
REF_FRAME      = TEME
TIME_SYSTEM    = UTC
MEAN_ELEMENT_THEORY = SGP/SGP4

EPOCH          = 2026-01-31T11:58:25.010976
MEAN_MOTION    = 15.21594391
ECCENTRICITY   = .0021922
INCLINATION    = 81.1723
RA_OF_ASC_NODE = 204.3420
ARG_OF_PERICENTER = 306.8220
MEAN_ANOMALY   = 53.1000

EPHEMERIS_TYPE = 0
CLASSIFICATION_TYPE = U
NORAD_CAT_ID   = 13068
ELEMENT_SET_NO = 999
REV_AT_EPOCH   = 39869
BSTAR          = .20507E-3
MEAN_MOTION_DOT = .4681E-4
MEAN_MOTION_DDOT = 0

CCSDS_OMM_VERS = 2.0
CREATION_DATE  = 
ORIGINATOR     = 

OBJECT_NAME    = SL-3 R/B
OBJECT_ID      = 1982-039B
CENTER_NAME    = EARTH
REF_FRAME      = TEME
TIME_SYSTEM    = UTC
MEAN_ELEMENT_THEORY = SGP/SGP4

EPOCH          = 2026-01-31T11:32:59.403840
MEAN_MOTION    = 15.09870823
ECCENTRICITY   = .0030075
INCLINATION    = 81.1634
RA_OF_ASC_NODE = 258.8453
ARG_OF_PERICENTER = 86.1838
MEAN_ANOMALY   = 274.2825

EPHEMERIS_TYPE = 0
CLASSIFICATION_TYPE = U
NORAD_CAT_ID   = 13154
ELEMENT_SET_NO = 999
REV_AT_EPOCH   = 37602
BSTAR          = .15803E-3
MEAN_MOTION_DOT = .2609E-4
MEAN_MOTION_DDOT = 0

