ATLAS CENTAUR R/B       
1 06155U 72065B   26031.46302074  .00001447  00000+0  20088-3 0  9991
2 06155  35.0002 163.8945 0033191  56.1438 304.2414 14.77572000835758
SL-8 R/B                
1 08459U 75112B   26031.49725942  .00000258  00000+0  93357-4 0  9991
2 08459  74.0600  87.3347 0015780 192.6228 167.4533 14.38184352626527
SL-3 R/B                
1 10114U 77057B   26031.47639447  .00012379  00000+0  26960-3 0  9996
2 10114  97.5712 201.8034 0008442  61.7345 298.4754 15.44394978662582
SEASAT 1                
1 10967U 78064A   26031.48858634  .00000383  00000+0  14546-3 0  9992
2 10967 108.0165  47.4270 0001398 290.0166  70.0829 14.46126882501133
SL-14 R/B               
1 11267U 79011B   26031.35602618  .00000834  00000+0  79897-4 0  9996
2 11267  82.5261 131.9908 0016107 177.0457 183.0860 14.91857560523215
SL-8 R/B                
1 11574U 79089B   26031.49922692  .00000347  00000+0  11287-3 0  9991
2 11574  74.0694 159.8823 0016236 337.6353  22.4093 14.42325407430744
SL-14 R/B               
1 11672U 80005B   26031.41165306  .00000857  00000+0  84310-4 0  9997
2 11672  82.5169 342.5856 0014237 290.3499  69.6190 14.90875642470936
SL-8 R/B                
1 12139U 81003B   26031.30070125  .00024520  00000+0  65092-3 0  9995
2 12139  82.9395 324.5586 0265428 309.3855  48.4131 15.09512751309039
SL-3 R/B                
1 12465U 81046B   26031.45883847  .00012120  00000+0  29168-3 0  9990
2 12465  81.2345 334.4027 0020215 144.0625 216.1981 15.40932117432693
SL-3 R/B                
1 12904U 81103B   26031.47473618  .00004746  00000+0  21290-3 0  9998
2 12904  81.1572 257.0817 0014112  52.5520 307.6993 15.20921979967576
SL-3 R/B                
1 13068U 82013B   26031.49890059  .00004681  00000+0  20507-3 0  9993
2 13068  81.1723 204.3420 0021922 306.8220  53.1000 15.21594391398698
SL-3 R/B                
1 13154U 82039B   26031.48124310  .00002609  00000+0  15803-3 0  9997
2 13154  81.1634 258.8453 0030075  86.1838 274.2825 15.09870823376024
